STARLINK-35498          
1 67017U 25293Q   26008.95361274  .00077893  00000+0  12558-2 0  9991
2 67017  70.0008 246.9214 0003196 260.2046  99.8780 15.52534070  5890
STARLINK-36106          
1 67018U 25293R   26008.95326846  .00092412  00000+0  14863-2 0  9993
2 67018  70.0011 246.9200 0003200 253.2980 106.7856 15.52541487  5897
STARLINK-35688          
1 67019U 25293S   26008.95292789  .00089586  00000+0  14413-2 0  9991
2 67019  70.0017 246.9192 0002831 261.8947  98.1919 15.52545528  5895
STARLINK-36172          
1 67020U 25293T   26009.00003471  .00097659  00000+0  15741-2 0  9993
2 67020  69.9999 246.7867 0003326 271.0445 354.1825 15.52459322  4588
STARLINK-36184          
1 67021U 25293U   26009.00003471  .00101172  00000+0  16301-2 0  9993
2 67021  69.9998 246.7841 0003245 274.5395 352.6080 15.52456391  4581
STARLINK-36209          
1 67022U 25293V   26008.82278654 -.00212805  00000+0 -33677-2 0  9993
2 67022  69.9999 247.2676 0010889 203.2613 156.8084 15.53892838  5871
STARLINK-36191          
1 67023U 25293W   26008.82268894  .00073486  00000+0  11841-2 0  9996
2 67023  69.9993 247.2668 0003891 264.6171  95.4572 15.52567142  5878
STARLINK-36192          
1 67024U 25293X   26008.62905756  .00134763  00000+0  21529-2 0  9990
2 67024  69.9994 247.7950 0003989 268.0688  92.0042 15.52561452  5848
STARLINK-36178          
1 67025U 25293Y   26008.82182506 -.01122272  00000+0 -19915-1 0  9993
2 67025  70.0019 247.2631 0003562  20.9321 339.2012 15.52886525  5874
STARLINK-36176          
1 67026U 25293Z   26008.82132298  .00074541  00000+0  12019-2 0  9998
2 67026  69.9989 247.2603 0004789 287.6197  72.4467 15.52538096  5868
STARLINK-36171          
1 67027U 25293AA  26008.69280364  .00080152  00000+0  12911-2 0  9998
2 67027  70.0001 247.6156 0003241 265.9320  94.1496 15.52548680  5855
STARLINK-36132          
1 67028U 25293AB  26008.69177476  .00094056  00000+0  15115-2 0  9995
2 67028  70.0002 247.6113 0003350 272.5197  87.5606 15.52557086  5856
