CCSDS_OMM_VERS = 2.0
CREATION_DATE  = 
ORIGINATOR     = 

OBJECT_NAME    = STARLINK-35498
OBJECT_ID      = 2025-293Q
CENTER_NAME    = EARTH
REF_FRAME      = TEME
TIME_SYSTEM    = UTC
MEAN_ELEMENT_THEORY = SGP/SGP4

EPOCH          = 2026-01-08T22:53:12.140736
MEAN_MOTION    = 15.52534070
ECCENTRICITY   = .0003196
INCLINATION    = 70.0008
RA_OF_ASC_NODE = 246.9214
ARG_OF_PERICENTER = 260.2046
MEAN_ANOMALY   = 99.8780

EPHEMERIS_TYPE = 0
CLASSIFICATION_TYPE = U
NORAD_CAT_ID   = 67017
ELEMENT_SET_NO = 999
REV_AT_EPOCH   = 589
BSTAR          = .12558E-2
MEAN_MOTION_DOT = .77893E-3
MEAN_MOTION_DDOT = 0

CCSDS_OMM_VERS = 2.0
CREATION_DATE  = 
ORIGINATOR     = 

OBJECT_NAME    = STARLINK-36106
OBJECT_ID      = 2025-293R
CENTER_NAME    = EARTH
REF_FRAME      = TEME
TIME_SYSTEM    = UTC
MEAN_ELEMENT_THEORY = SGP/SGP4

EPOCH          = 2026-01-08T22:52:42.394944
MEAN_MOTION    = 15.52541487
ECCENTRICITY   = .00032
INCLINATION    = 70.0011
RA_OF_ASC_NODE = 246.9200
ARG_OF_PERICENTER = 253.2980
MEAN_ANOMALY   = 106.7856

EPHEMERIS_TYPE = 0
CLASSIFICATION_TYPE = U
NORAD_CAT_ID   = 67018
ELEMENT_SET_NO = 999
REV_AT_EPOCH   = 589
BSTAR          = .14863E-2
MEAN_MOTION_DOT = .92412E-3
MEAN_MOTION_DDOT = 0

CCSDS_OMM_VERS = 2.0
CREATION_DATE  = 
ORIGINATOR     = 

OBJECT_NAME    = STARLINK-35688
OBJECT_ID      = 2025-293S
CENTER_NAME    = EARTH
REF_FRAME      = TEME
TIME_SYSTEM    = UTC
MEAN_ELEMENT_THEORY = SGP/SGP4

EPOCH          = 2026-01-08T22:52:12.969696
MEAN_MOTION    = 15.52545528
ECCENTRICITY   = .0002831
INCLINATION    = 70.0017
RA_OF_ASC_NODE = 246.9192
ARG_OF_PERICENTER = 261.8947
MEAN_ANOMALY   = 98.1919

EPHEMERIS_TYPE = 0
CLASSIFICATION_TYPE = U
NORAD_CAT_ID   = 67019
ELEMENT_SET_NO = 999
REV_AT_EPOCH   = 589
BSTAR          = .14413E-2
MEAN_MOTION_DOT = .89586E-3
MEAN_MOTION_DDOT = 0

CCSDS_OMM_VERS = 2.0
CREATION_DATE  = 
ORIGINATOR     = 

OBJECT_NAME    = STARLINK-36172
OBJECT_ID      = 2025-293T
CENTER_NAME    = EARTH
REF_FRAME      = TEME
TIME_SYSTEM    = UTC
MEAN_ELEMENT_THEORY = SGP/SGP4

EPOCH          = 2026-01-09T00:00:02.998944
MEAN_MOTION    = 15.52459322
ECCENTRICITY   = .0003326
INCLINATION    = 69.9999
RA_OF_ASC_NODE = 246.7867
ARG_OF_PERICENTER = 271.0445
MEAN_ANOMALY   = 354.1825

EPHEMERIS_TYPE = 0
CLASSIFICATION_TYPE = U
NORAD_CAT_ID   = 67020
ELEMENT_SET_NO = 999
REV_AT_EPOCH   = 458
BSTAR          = .15741E-2
MEAN_MOTION_DOT = .97659E-3
MEAN_MOTION_DDOT = 0

CCSDS_OMM_VERS = 2.0
CREATION_DATE  = 
ORIGINATOR     = 

OBJECT_NAME    = STARLINK-36184
OBJECT_ID      = 2025-293U
CENTER_NAME    = EARTH
REF_FRAME      = TEME
TIME_SYSTEM    = UTC
MEAN_ELEMENT_THEORY = SGP/SGP4

EPOCH          = 2026-01-09T00:00:02.998944
MEAN_MOTION    = 15.52456391
ECCENTRICITY   = .0003245
INCLINATION    = 69.9998
RA_OF_ASC_NODE = 246.7841
ARG_OF_PERICENTER = 274.5395
MEAN_ANOMALY   = 352.6080

EPHEMERIS_TYPE = 0
CLASSIFICATION_TYPE = U
NORAD_CAT_ID   = 67021
ELEMENT_SET_NO = 999
REV_AT_EPOCH   = 458
BSTAR          = .16301E-2
MEAN_MOTION_DOT = .101172E-2
MEAN_MOTION_DDOT = 0

CCSDS_OMM_VERS = 2.0
CREATION_DATE  = 
ORIGINATOR     = 

OBJECT_NAME    = STARLINK-36209
OBJECT_ID      = 2025-293V
CENTER_NAME    = EARTH
REF_FRAME      = TEME
TIME_SYSTEM    = UTC
MEAN_ELEMENT_THEORY = SGP/SGP4

EPOCH          = 2026-01-08T19:44:48.757056
MEAN_MOTION    = 15.53892838
ECCENTRICITY   = .0010889
INCLINATION    = 69.9999
RA_OF_ASC_NODE = 247.2676
ARG_OF_PERICENTER = 203.2613
MEAN_ANOMALY   = 156.8084

EPHEMERIS_TYPE = 0
CLASSIFICATION_TYPE = U
NORAD_CAT_ID   = 67022
ELEMENT_SET_NO = 999
REV_AT_EPOCH   = 587
BSTAR          = -.33677E-2
MEAN_MOTION_DOT = -.212805E-2
MEAN_MOTION_DDOT = 0

CCSDS_OMM_VERS = 2.0
CREATION_DATE  = 
ORIGINATOR     = 

OBJECT_NAME    = STARLINK-36191
OBJECT_ID      = 2025-293W
CENTER_NAME    = EARTH
REF_FRAME      = TEME
TIME_SYSTEM    = UTC
MEAN_ELEMENT_THEORY = SGP/SGP4

EPOCH          = 2026-01-08T19:44:40.324416
MEAN_MOTION    = 15.52567142
ECCENTRICITY   = .0003891
INCLINATION    = 69.9993
RA_OF_ASC_NODE = 247.2668
ARG_OF_PERICENTER = 264.6171
MEAN_ANOMALY   = 95.4572

EPHEMERIS_TYPE = 0
CLASSIFICATION_TYPE = U
NORAD_CAT_ID   = 67023
ELEMENT_SET_NO = 999
REV_AT_EPOCH   = 587
BSTAR          = .11841E-2
MEAN_MOTION_DOT = .73486E-3
MEAN_MOTION_DDOT = 0

CCSDS_OMM_VERS = 2.0
CREATION_DATE  = 
ORIGINATOR     = 

OBJECT_NAME    = STARLINK-36192
OBJECT_ID      = 2025-293X
CENTER_NAME    = EARTH
REF_FRAME      = TEME
TIME_SYSTEM    = UTC
MEAN_ELEMENT_THEORY = SGP/SGP4

EPOCH          = 2026-01-08T15:05:50.573184
MEAN_MOTION    = 15.52561452
ECCENTRICITY   = .00039896
INCLINATION    = 69.9994
RA_OF_ASC_NODE = 247.7950
ARG_OF_PERICENTER = 268.0688
MEAN_ANOMALY   = 92.0042

EPHEMERIS_TYPE = 0
CLASSIFICATION_TYPE = U
NORAD_CAT_ID   = 67024
ELEMENT_SET_NO = 999
REV_AT_EPOCH   = 584
BSTAR          = .21528695E-2
MEAN_MOTION_DOT = .134763E-2
MEAN_MOTION_DDOT = 0

CCSDS_OMM_VERS = 2.0
CREATION_DATE  = 
ORIGINATOR     = 

OBJECT_NAME    = STARLINK-36178
OBJECT_ID      = 2025-293Y
CENTER_NAME    = EARTH
REF_FRAME      = TEME
TIME_SYSTEM    = UTC
MEAN_ELEMENT_THEORY = SGP/SGP4

EPOCH          = 2026-01-08T19:43:25.685184
MEAN_MOTION    = 15.52886525
ECCENTRICITY   = .0003562
INCLINATION    = 70.0019
RA_OF_ASC_NODE = 247.2631
ARG_OF_PERICENTER = 20.9321
MEAN_ANOMALY   = 339.2012

EPHEMERIS_TYPE = 0
CLASSIFICATION_TYPE = U
NORAD_CAT_ID   = 67025
ELEMENT_SET_NO = 999
REV_AT_EPOCH   = 587
BSTAR          = -.19915E-1
MEAN_MOTION_DOT = -.1122272E-1
MEAN_MOTION_DDOT = 0

CCSDS_OMM_VERS = 2.0
CREATION_DATE  = 
ORIGINATOR     = 

OBJECT_NAME    = STARLINK-36176
OBJECT_ID      = 2025-293Z
CENTER_NAME    = EARTH
REF_FRAME      = TEME
TIME_SYSTEM    = UTC
MEAN_ELEMENT_THEORY = SGP/SGP4

EPOCH          = 2026-01-08T19:42:42.305472
MEAN_MOTION    = 15.52538096
ECCENTRICITY   = .0004789
INCLINATION    = 69.9989
RA_OF_ASC_NODE = 247.2603
ARG_OF_PERICENTER = 287.6197
MEAN_ANOMALY   = 72.4467

EPHEMERIS_TYPE = 0
CLASSIFICATION_TYPE = U
NORAD_CAT_ID   = 67026
ELEMENT_SET_NO = 999
REV_AT_EPOCH   = 586
BSTAR          = .12019E-2
MEAN_MOTION_DOT = .74541E-3
MEAN_MOTION_DDOT = 0

CCSDS_OMM_VERS = 2.0
CREATION_DATE  = 
ORIGINATOR     = 

OBJECT_NAME    = STARLINK-36171
OBJECT_ID      = 2025-293AA
CENTER_NAME    = EARTH
REF_FRAME      = TEME
TIME_SYSTEM    = UTC
MEAN_ELEMENT_THEORY = SGP/SGP4

EPOCH          = 2026-01-08T16:37:38.234496
MEAN_MOTION    = 15.52548680
ECCENTRICITY   = .0003241
INCLINATION    = 70.0001
RA_OF_ASC_NODE = 247.6156
ARG_OF_PERICENTER = 265.9320
MEAN_ANOMALY   = 94.1496

EPHEMERIS_TYPE = 0
CLASSIFICATION_TYPE = U
NORAD_CAT_ID   = 67027
ELEMENT_SET_NO = 999
REV_AT_EPOCH   = 585
BSTAR          = .12911E-2
MEAN_MOTION_DOT = .80152E-3
MEAN_MOTION_DDOT = 0

CCSDS_OMM_VERS = 2.0
CREATION_DATE  = 
ORIGINATOR     = 

OBJECT_NAME    = STARLINK-36132
OBJECT_ID      = 2025-293AB
CENTER_NAME    = EARTH
REF_FRAME      = TEME
TIME_SYSTEM    = UTC
MEAN_ELEMENT_THEORY = SGP/SGP4

EPOCH          = 2026-01-08T16:36:09.339264
MEAN_MOTION    = 15.52557086
ECCENTRICITY   = .000335
INCLINATION    = 70.0002
RA_OF_ASC_NODE = 247.6113
ARG_OF_PERICENTER = 272.5197
MEAN_ANOMALY   = 87.5606

EPHEMERIS_TYPE = 0
CLASSIFICATION_TYPE = U
NORAD_CAT_ID   = 67028
ELEMENT_SET_NO = 999
REV_AT_EPOCH   = 585
BSTAR          = .15115E-2
MEAN_MOTION_DOT = .94056E-3
MEAN_MOTION_DDOT = 0

